[{"OBJECT_NAME":"STARLINK-3828","OBJECT_ID":"2022-049U","EPOCH":"2026-03-09T06:14:41.988480","MEAN_MOTION":15.08840083,"ECCENTRICITY":0.00014184,"INCLINATION":53.217,"RA_OF_ASC_NODE":61.0537,"ARG_OF_PERICENTER":84.6305,"MEAN_ANOMALY":275.4849,"EPHEMERIS_TYPE":0,"CLASSIFICATION_TYPE":"U","NORAD_CAT_ID":52469,"ELEMENT_SET_NO":999,"REV_AT_EPOCH":21218,"BSTAR":-3.9567451e-5,"MEAN_MOTION_DOT":-9.18e-6,"MEAN_MOTION_DDOT":0},{"OBJECT_NAME":"OBJECT K","OBJECT_ID":"2017-042K","EPOCH":"2026-03-09T21:28:20.621568","MEAN_MOTION":15.07994228,"ECCENTRICITY":0.00097557,"INCLINATION":97.4104,"RA_OF_ASC_NODE":233.8721,"ARG_OF_PERICENTER":49.2775,"MEAN_ANOMALY":310.9299,"EPHEMERIS_TYPE":0,"CLASSIFICATION_TYPE":"U","NORAD_CAT_ID":42834,"ELEMENT_SET_NO":999,"REV_AT_EPOCH":47201,"BSTAR":0.00042776846,"MEAN_MOTION_DOT":6.528e-5,"MEAN_MOTION_DDOT":0}]
